{
  "type": "FeatureCollection",
  "features": [
    {
      "type": "Feature",
      "properties": {
        "norad_id": 66532,
        "name": "STARLINK-35914",
        "group": "last-30-days",
        "lat": 40.689450854454236,
        "lon": 118.35021353783034,
        "alt_km": 409.37142438655974,
        "timestamp": "2025-12-13T05:42:56.155218+00:00",
        "meta_object_name": "STARLINK-35914",
        "meta_object_id": "2025-265S",
        "meta_epoch": "2025-12-12T06:00:00.999648",
        "meta_mean_motion": 15.50542399,
        "meta_eccentricity": 0.00015673,
        "meta_inclination": 43.0001,
        "meta_ra_of_asc_node": 56.8082,
        "meta_arg_of_pericenter": 243.5519,
        "meta_mean_anomaly": 66.9129,
        "meta_ephemeris_type": 0,
        "meta_classification_type": "U",
        "meta_norad_cat_id": 66532,
        "meta_element_set_no": 999,
        "meta_rev_at_epoch": 491,
        "meta_bstar": 0.001015365,
        "meta_mean_motion_dot": 0.00059602,
        "meta_mean_motion_ddot": 0,
        "tle_line1": "1 66532U 25265S   25346.25001157  .00059602  00000+0  10154-2 0  9997",
        "tle_line2": "2 66532  43.0001  56.8082 0001567 243.5519  66.9129 15.50542399  4919"
      },
      "geometry": {
        "type": "Point",
        "coordinates": [
          118.35021353783034,
          40.689450854454236
        ]
      }
    },
    {
      "type": "Feature",
      "properties": {
        "norad_id": 66533,
        "name": "STARLINK-35707",
        "group": "last-30-days",
        "lat": 41.165756710766864,
        "lon": 120.7932892641704,
        "alt_km": 409.18999402181,
        "timestamp": "2025-12-13T05:42:56.155229+00:00",
        "meta_object_name": "STARLINK-35707",
        "meta_object_id": "2025-265T",
        "meta_epoch": "2025-12-12T06:00:00.999648",
        "meta_mean_motion": 15.5050599,
        "meta_eccentricity": 0.00015442,
        "meta_inclination": 43.0003,
        "meta_ra_of_asc_node": 56.8037,
        "meta_arg_of_pericenter": 262.7653,
        "meta_mean_anomaly": 49.633,
        "meta_ephemeris_type": 0,
        "meta_classification_type": "U",
        "meta_norad_cat_id": 66533,
        "meta_element_set_no": 999,
        "meta_rev_at_epoch": 491,
        "meta_bstar": 0.0014912897,
        "meta_mean_motion_dot": 0.00087904,
        "meta_mean_motion_ddot": 0,
        "tle_line1": "1 66533U 25265T   25346.25001157  .00087904  00000+0  14913-2 0  9991",
        "tle_line2": "2 66533  43.0003  56.8037 0001544 262.7653  49.6330 15.50505990  4917"
      },
      "geometry": {
        "type": "Point",
        "coordinates": [
          120.7932892641704,
          41.165756710766864
        ]
      }
    },
    {
      "type": "Feature",
      "properties": {
        "norad_id": 66534,
        "name": "STARLINK-35976",
        "group": "last-30-days",
        "lat": 41.57531087065056,
        "lon": 123.1817214459954,
        "alt_km": 409.24276216108683,
        "timestamp": "2025-12-13T05:42:56.155239+00:00",
        "meta_object_name": "STARLINK-35976",
        "meta_object_id": "2025-265U",
        "meta_epoch": "2025-12-12T06:00:00.999648",
        "meta_mean_motion": 15.50544632,
        "meta_eccentricity": 0.0001344,
        "meta_inclination": 43.0005,
        "meta_ra_of_asc_node": 56.7999,
        "meta_arg_of_pericenter": 259.2936,
        "meta_mean_anomaly": 55.0096,
        "meta_ephemeris_type": 0,
        "meta_classification_type": "U",
        "meta_norad_cat_id": 66534,
        "meta_element_set_no": 999,
        "meta_rev_at_epoch": 491,
        "meta_bstar": 0.00051277664,
        "meta_mean_motion_dot": 0.00029818,
        "meta_mean_motion_ddot": 0,
        "tle_line1": "1 66534U 25265U   25346.25001157  .00029818  00000+0  51278-3 0  9998",
        "tle_line2": "2 66534  43.0005  56.7999 0001344 259.2936  55.0096 15.50544632  4915"
      },
      "geometry": {
        "type": "Point",
        "coordinates": [
          123.1817214459954,
          41.57531087065056
        ]
      }
    },
    {
      "type": "Feature",
      "properties": {
        "norad_id": 66535,
        "name": "STARLINK-35514",
        "group": "last-30-days",
        "lat": 41.952978522377435,
        "lon": 125.7321681182103,
        "alt_km": 409.3390662664251,
        "timestamp": "2025-12-13T05:42:56.155250+00:00",
        "meta_object_name": "STARLINK-35514",
        "meta_object_id": "2025-265V",
        "meta_epoch": "2025-12-12T06:00:00.999648",
        "meta_mean_motion": 15.505499,
        "meta_eccentricity": 0.00016222,
        "meta_inclination": 43.0006,
        "meta_ra_of_asc_node": 56.7949,
        "meta_arg_of_pericenter": 264.7222,
        "meta_mean_anomaly": 51.4987,
        "meta_ephemeris_type": 0,
        "meta_classification_type": "U",
        "meta_norad_cat_id": 66535,
        "meta_element_set_no": 999,
        "meta_rev_at_epoch": 491,
        "meta_bstar": 0.00052419619,
        "meta_mean_motion_dot": 0.00030498,
        "meta_mean_motion_ddot": 0,
        "tle_line1": "1 66535U 25265V   25346.25001157  .00030498  00000+0  52420-3 0  9995",
        "tle_line2": "2 66535  43.0006  56.7949 0001622 264.7222  51.4987 15.50549900  4912"
      },
      "geometry": {
        "type": "Point",
        "coordinates": [
          125.7321681182103,
          41.952978522377435
        ]
      }
    },
    {
      "type": "Feature",
      "properties": {
        "norad_id": 66536,
        "name": "STARLINK-35640",
        "group": "last-30-days",
        "lat": 42.26692069311529,
        "lon": 128.25665154684233,
        "alt_km": 409.00343565503226,
        "timestamp": "2025-12-13T05:42:56.155261+00:00",
        "meta_object_name": "STARLINK-35640",
        "meta_object_id": "2025-265W",
        "meta_epoch": "2025-12-12T06:00:00.999648",
        "meta_mean_motion": 15.50545984,
        "meta_eccentricity": 0.00011599,
        "meta_inclination": 43.0004,
        "meta_ra_of_asc_node": 56.7902,
        "meta_arg_of_pericenter": 263.3369,
        "meta_mean_anomaly": 54.7989,
        "meta_ephemeris_type": 0,
        "meta_classification_type": "U",
        "meta_norad_cat_id": 66536,
        "meta_element_set_no": 999,
        "meta_rev_at_epoch": 489,
        "meta_bstar": 0.00052711307,
        "meta_mean_motion_dot": 0.00030666,
        "meta_mean_motion_ddot": 0,
        "tle_line1": "1 66536U 25265W   25346.25001157  .00030666  00000+0  52711-3 0  9996",
        "tle_line2": "2 66536  43.0004  56.7902 0001159 263.3369  54.7989 15.50545984  4895"
      },
      "geometry": {
        "type": "Point",
        "coordinates": [
          128.25665154684233,
          42.26692069311529
        ]
      }
    },
    {
      "type": "Feature",
      "properties": {
        "norad_id": 66537,
        "name": "STARLINK-35582",
        "group": "last-30-days",
        "lat": 42.55392485257292,
        "lon": 131.12958641231918,
        "alt_km": 409.25708720010243,
        "timestamp": "2025-12-13T05:42:56.155271+00:00",
        "meta_object_name": "STARLINK-35582",
        "meta_object_id": "2025-265X",
        "meta_epoch": "2025-12-12T06:00:00.999648",
        "meta_mean_motion": 15.50731762,
        "meta_eccentricity": 0.0001351,
        "meta_inclination": 43.0006,
        "meta_ra_of_asc_node": 56.7854,
        "meta_arg_of_pericenter": 261.1373,
        "meta_mean_anomaly": 58.8932,
        "meta_ephemeris_type": 0,
        "meta_classification_type": "U",
        "meta_norad_cat_id": 66537,
        "meta_element_set_no": 999,
        "meta_rev_at_epoch": 491,
        "meta_bstar": -0.0014773012,
        "meta_mean_motion_dot": -0.00086525,
        "meta_mean_motion_ddot": 0,
        "tle_line1": "1 66537U 25265X   25346.25001157 -.00086525  00000+0 -14773-2 0  9999",
        "tle_line2": "2 66537  43.0006  56.7854 0001351 261.1373  58.8932 15.50731762  4916"
      },
      "geometry": {
        "type": "Point",
        "coordinates": [
          131.12958641231918,
          42.55392485257292
        ]
      }
    },
    {
      "type": "Feature",
      "properties": {
        "norad_id": 66538,
        "name": "STARLINK-35577",
        "group": "last-30-days",
        "lat": 42.729924869407085,
        "lon": 133.42785151385488,
        "alt_km": 408.87230455748795,
        "timestamp": "2025-12-13T05:42:56.155284+00:00",
        "meta_object_name": "STARLINK-35577",
        "meta_object_id": "2025-265Y",
        "meta_epoch": "2025-12-12T06:00:00.999648",
        "meta_mean_motion": 15.50496154,
        "meta_eccentricity": 0.0001445,
        "meta_inclination": 43.0005,
        "meta_ra_of_asc_node": 56.7801,
        "meta_arg_of_pericenter": 262.7669,
        "meta_mean_anomaly": 59.1499,
        "meta_ephemeris_type": 0,
        "meta_classification_type": "U",
        "meta_norad_cat_id": 66538,
        "meta_element_set_no": 999,
        "meta_rev_at_epoch": 491,
        "meta_bstar": 0.0016883829,
        "meta_mean_motion_dot": 0.00099683,
        "meta_mean_motion_ddot": 0,
        "tle_line1": "1 66538U 25265Y   25346.25001157  .00099683  00000+0  16884-2 0  9992",
        "tle_line2": "2 66538  43.0005  56.7801 0001445 262.7669  59.1499 15.50496154  4912"
      },
      "geometry": {
        "type": "Point",
        "coordinates": [
          133.42785151385488,
          42.729924869407085
        ]
      }
    }
  ]
}